{"type":"FeatureCollection","name":"Hog_Ranch_Tenement","crs":{"type":"name","properties":{"name":"urn:ogc:def:crs:EPSG::26911"}},"features":[{"type":"Feature","properties":{"id":null,"Area (km2)":86.87886193289022,"Area":149531067.07435706,"Area (ha)":14456.80481},"geometry":{"type":"MultiPolygon","coordinates":[[[[286623.9162129,4570021.8740857],[286610.445,4569564.8725907],[286793.245598,4569559.4841055],[286766.3031723,4568645.4811155],[287314.7049663,4568629.3156601],[287301.2337534,4568172.3141651],[287484.0343514,4568166.92568],[288382.8848757,4568131.1632386],[288370.3519022,4567674.1350506],[288553.1631774,4567669.1218612],[288540.6302039,4567212.0936733],[288723.4414791,4567207.0804839],[288710.9085057,4566750.052296],[288893.7197808,4566745.0391066],[288881.1868074,4566288.0109186],[289429.6206329,4566272.9713505],[289417.0876595,4565815.9431626],[289965.521485,4565800.9035944],[289952.9885116,4565343.8754065],[290501.4223371,4565328.8358383],[290488.8893636,4564871.8076504],[290854.511914,4564861.7812716],[290841.9789405,4564404.7530837],[291024.7902157,4564399.7398943],[291018.9530443,4563947.0284049],[291567.3548383,4563930.8629495],[291553.8836254,4563473.8614545],[291919.4848214,4563463.0844842],[291906.0136086,4563006.0829892],[292637.2160005,4562984.5290486],[292623.7447877,4562527.5275536],[293172.1465817,4562511.3620982],[293158.6753688,4562054.3606032],[295169.4819468,4561995.0872667],[296083.7002,4561968.1448408],[296070.1149,4561511.1433458],[296252.8401,4561506.209],[296239.3430324,4561048.7533657],[296422.143707,4561043.3648806],[296395.2119741,4560129.3618906],[296760.8024773,4560118.5849203],[296774.2736902,4560575.5864153],[297505.4760822,4560554.0324747],[297492.0048693,4560097.0309797],[297857.6060653,4560086.2540095],[297844.1348524,4559629.2525145],[297478.5336565,4559640.0294847],[297465.0624436,4559183.0279898],[296551.0594536,4559209.9704155],[296483.7033893,4556924.9629405],[292644.8908314,4557038.1211285],[292631.4196185,4556581.1196335],[292083.0178245,4556597.285089],[292069.5466117,4556140.283594],[291703.9454157,4556151.0605643],[291677.00299,4555237.0575743],[292773.806578,4555204.7266634],[292746.8641522,4554290.7236734],[292564.0635542,4554296.1121586],[292523.6499157,4552925.1076736],[291792.4475237,4552946.6616142],[291800.5302514,4553220.8625112],[291332.751502,4553234.6345658],[291324.6852,4552960.1686],[290412.7484,4552984.5471],[290425.9678,4553442.5894],[290343.5139526,4553446.7709903],[290365.0678931,4554177.9733823],[289908.0663982,4554191.4445952],[289913.4548833,4554374.2451932],[289822.0545843,4554376.9394357],[289835.5257972,4554833.9409307],[289469.9246012,4554844.717901],[289483.395814,4555301.719396],[289300.595216,4555307.1078811],[289327.5376417,4556221.1108711],[288413.5346518,4556248.0532968],[288411.7100591,4556186.1552642],[287863.3082651,4556202.3207196],[287865.1328578,4556264.2187523],[281832.7131239,4556442.038762],[282072.5007128,4564576.6653728],[281829.3592472,4564583.8325494],[281840.1362174,4564949.4337454],[281991.877384,4564944.9608114],[281997.2658692,4565127.7614094],[281905.8655702,4565130.4556519],[281931.224,4566038.8844],[282114.2309,4566033.755],[282142.5510196,4566953.0731468],[283604.9558036,4566909.9652656],[283618.4270165,4567366.9667606],[282337.7306683,4567403.6796381],[282336.7926346,4567403.7065281],[282349.5906,4567860.6817],[282532.4146,4567855.4561],[282545.6644,4568313.48],[282911.1724,4568303.139],[282941.1094759,4569216.5266811],[283123.9100739,4569211.138196],[283137.3812868,4569668.139691],[283320.1818847,4569662.7512059],[283333.6530976,4570119.7527009],[283699.2542936,4570108.9757306],[283712.7255065,4570565.9772256],[286271.7862297,4570489.6525509],[286258.3150169,4570032.68332],[286623.9162129,4570021.8740857]],[[287876.779478,4556659.3222146],[288425.181272,4556643.1567592],[288427.0058646,4556705.0547918],[287878.6040706,4556721.2202473],[287876.779478,4556659.3222146]],[[291566.9469414,4557710.2541324],[291561.5584563,4557527.4535344],[291927.1596523,4557516.6765641],[291940.6308651,4557973.6780591],[290112.6248852,4558027.5629105],[290104.5421574,4557753.3620135],[290470.1433154,4557742.5837531],[290464.7548683,4557559.7844452],[291104.5569613,4557540.9247472],[291109.9454464,4557723.7253452],[291566.9469414,4557710.2541324]],[[294787.5113469,4558347.1580344],[294760.5689212,4557433.158],[295126.1701172,4557422.3780741],[295166.5837558,4558793.3825591],[294831.4493261,4558803.2614485],[294817.9781133,4558346.2599535],[294787.5113469,4558347.1580344]],[[285567.9642792,4559073.3205687],[285554.7931864,4558616.3103256],[283545.1471897,4558674.2285763],[283362.2658005,4558679.586462],[283349.0027593,4558226.9368608],[283334.8018339,4557765.5110846],[283700.4100284,4557754.9742104],[283713.5811212,4558211.9844535],[285907.2302882,4558148.7632083],[285920.4013809,4558605.7734514],[287200.0300617,4558568.8943917],[287213.2011544,4559025.9046348],[285567.9642792,4559073.3205687]],[[283122.4564301,4564176.1512098],[283132.4488437,4564505.2236629],[283911.137159,4564475.2155532],[283887.2624197,4563685.2093666],[284242.8324179,4563669.8937955],[284276.884859,4564877.6047471],[282754.1392074,4564922.4913197],[282743.3622371,4564556.8901237],[282255.3013108,4564571.2768877],[282244.5243405,4564205.6756917],[282792.9261345,4564189.5102363],[283122.4564301,4564176.1512098]]]]}},{"type":"Feature","properties":{"id":null,"Area (km2)":0.08361272345221,"Area":83588.75041651726,"Area (ha)":8.361272345},"geometry":{"type":"MultiPolygon","coordinates":[[[[289640.5805985,4553792.5337846],[289732.0205985,4553950.9124846],[290127.9673985,4553722.3124846],[290036.5273985,4553563.9337846],[289640.5805985,4553792.5337846]]]]}},{"type":"Feature","properties":{"id":4,"Area (km2)":null,"Area":null,"Area (ha)":null},"geometry":{"type":"MultiPolygon","coordinates":[]}},{"type":"Feature","properties":{"id":5,"Area (km2)":null,"Area":null,"Area (ha)":null},"geometry":{"type":"MultiPolygon","coordinates":[]}}]}